#dP2020  5  4  0  0  0.00000000      96 __u+U ITR00 FIT  IAC
## 2104  86400.00000000   900.00000000 58973 0.0000000000000
+  117   C06C07C08C09C10C11C12C13C14C16C19C20C21C22C23C24C25
+        C26C27C28C29C30C32C33C34C35C36C37C38C39C40C43C44C45
+        C46E01E02E03E04E05E07E08E09E11E12E13E14E15E18E19E21
+        E24E25E26E27E30E31E33E36G01G02G03G04G05G06G07G08G09
+        G10G11G12G13G14G15G16G17G18G19G20G21G22G23G24G25G26
+        G27G28G29G30G31G32J01J02J03R01R02R03R04R05R07R08R09
+        R11R12R13R14R15R16R17R18R19R20R21R22R23R24R26  0  0
++         9  8  6  8  7  6  6  8  5  9  8  6  8  7  7  7  7
++         6  7  7  6  8  6  7  6  7  7  6  0  5 13  8  8 10
++         7  5  6  5  7  5  6  6  5  7  7  6  6  6  5  7  5
++         6  5  5  8  6  6  4  6  6  5  5  5  5  5  5  5  5
++         4  4  6  5  5  4  6  6  6  5  5  7  6  4  6  6  5
++         6  6  6  6  6  5  9  8  9  6  6  7  6  7  5  5  6
++         7  5  7  7  5  6  7  6  8  7  5  7  5  7  7  0  0
%c M  cc GPS ccc cccc cccc cccc cccc ccccc ccccc ccccc ccccc
%c cc cc ccc ccc cccc cccc cccc cccc ccccc ccccc ccccc ccccc
%f  0.0000000  0.000000000  0.00000000000  0.000000000000000
%f  0.0000000  0.000000000  0.00000000000  0.000000000000000
%i    0    0    0    0      0      0      0      0         0
%i    0    0    0    0      0      0      0      0         0
/* INFORMATION & ANALYSIS CENTER (IAC)      ULTRA-RAPID DATA
/* S/V CLOCKS ARE ALIGNED TO GNSS TIME                      
/* G:C1WC2W R:C1PC2P E:C1XC5X C:C2IC6I J:C1CC2S             
/* PCV:IGS14_2101 OL/AL:FES2004  NONE     YN ORB:CoN CLK:CoN
*  2020 05 04  1 45  0.00000000
PC06 -18972.937195  37302.959794  -2157.905266    727.228972
PC07  -9234.243926  27419.147892  30992.282694     -4.935532
PC08 -23399.750400  19998.677246 -28875.824420   -233.742506
PC09  -8807.205698  38729.971560  13848.377998    516.154000
PC10   5000.073431  34903.043150  23591.640621   -920.327097
PC11   7137.933684 -22840.030517  14375.364798   -342.619568
PC12  19360.133899 -19817.308823  -3228.788093    364.316817
PC13  -7181.648090  23418.104446 -34270.184110    416.560362
PC14  -2943.362974 -26118.601751   9321.414918    366.459796
PC16 -16670.005277  38607.596261    765.290867   -656.608744
PC19   9753.817202  26155.393486   -315.234308    401.644779
PC20  -3427.044410  22512.287951 -16128.772125   -887.696746
PC21  15093.645402  -5216.907459  22910.018063   -358.627202
PC22  17510.097749  14739.286542  16000.615769   -816.398728
PC23 -25629.529396  -9074.113221  -6279.017324   -887.860261
PC24  10672.186118 -13821.774208 -21770.283278   -834.406205
PC25 -11522.033794 -15935.184124 -19810.812375   -604.791442
PC26  25066.532596  -4398.679797 -11418.722648    667.473943
PC27 -21735.131728  12955.787658  11725.657825    323.896429
PC28 -16118.825650  -4819.216414  22266.462744    314.960793
PC29   1866.553522  19649.969789 -19731.266226    223.640609
PC30 -13946.812268  23559.493723  -5336.300436    311.610894
PC32 -15022.563832   5392.618676 -22869.019746 999999.999999
PC33  -9795.497538 -26114.398038    436.740467   -848.087228
PC34  13734.674277 -23619.163574   5744.263160   -687.885704
PC35  16243.142535   4440.555835 -22261.286376   -861.580191
PC36  10886.025365  16236.746521  19939.693378   -826.346178
PC37 -25489.637773   3384.725121  10873.500052   -842.512944
PC38 -17436.243536  23368.548942 -30491.787324 999999.999999
PC39 -12533.839471  40104.398874   2920.690498 999999.999999
PC40   1626.576844  32187.124537  27272.989157     40.315578
PC43  -1548.451377 -19897.064917  19511.570915   -178.058466
PC44  21397.342381 -13481.863079 -11842.543635   -203.656312
PC45  25643.824055   8973.409333   6344.385191    123.555230
PC46 -10161.542258  13902.961892  21971.042905    853.379255
PE01  13294.094232 -10491.578096 -24279.890024   -849.136797
PE02 -13225.990065  10544.153497  24287.067810    130.861233
PE03 -12644.107820  21938.627692 -15336.206864   -294.810866
PE04    806.081739 -29510.770107  -2127.739989   -518.282332
PE05 -17218.446453   1387.257226 -24029.228343   -383.252203
PE07  11708.537104  19814.953945  18632.427951   -376.926895
PE08   -466.582703  29511.024091   2360.746794   6183.328423
PE09 -11762.474726 -19632.828970 -18751.948833   6072.645230
PE11 -15712.836650  -9369.836227  23259.823410   2627.165909
PE12   5376.791774 -18887.881563  22158.203295   5822.922374
PE13  15521.212193   9390.885481 -23386.484178    400.564426
PE14  -6232.367124 -16969.692870  15234.371740  -1000.950294
PE15  -5086.131770  18789.630928 -22288.007858    868.285956
PE18  13511.632255  17536.858407 -23819.962143  -1099.734344
PE19  13465.349736 -20221.566523  16921.125992  -1554.397220
PE21  25235.009313   5626.645258 -14418.654650   -596.978838
PE24 -22361.520729 -18946.007211  -4234.399386   5474.271675
PE25 -25267.567785  -5733.789980  14313.649703   -510.044009
PE26  27164.947568  -5571.620089 -10355.406280   3229.983614
PE27  22569.341850  18719.407115   4030.675557    227.540488
PE30   6226.315515  20745.394701  20157.493368   3935.618850
PE31  -6665.108656 -20754.740418 -20021.085787   -472.461703
PE33  22723.774524 -17164.721052   8105.647485   -467.698448
PE36 -27011.990310   5505.698120  10771.136892    564.764612
PG01   4042.880053  14399.717124 -22177.811166   -372.947735
PG02  18210.227772 -14322.125155  13573.612686   -450.069959
PG03  11114.544223  22599.979518  -8653.650921   -164.654458
PG04   2222.093252  22023.709305  14669.509232    -84.659268
PG05   6941.440237 -14586.793388  20914.463968    -12.015882
PG06  25261.769141  -7245.579239   4061.083070   -264.995787
PG07  21375.606964   7095.017598  14754.075820   -273.053483
PG08  -5723.260352  25432.100858  -4292.483032    -32.788620
PG09  10883.500404  12940.116456  20430.932419   -210.414770
PG10 -20063.335725  -6319.618994 -16267.540299   -330.083533
PG11  -5141.686460  20254.975717 -17051.212893   -287.304576
PG12  -8631.747247 -23268.194413  -9921.575139    122.003378
PG13  13215.853254 -22901.568815   1798.439923      7.162893
PG14 -17278.647356  13761.629541 -14264.117191    -15.390611
PG15   2469.828521 -25788.438810  -5163.025663   -233.643761
PG16  -6853.063841  14615.699102  20778.479116   -154.000555
PG17  16397.340747  -4510.619047 -19969.399450    259.047186
PG18 -19808.996181  -8087.062179  15761.940656    178.114194
PG19  17726.691638 -11849.149987 -16127.417936   -163.554068
PG20 -21942.486236 -13914.255501  -6114.613096    527.741720
PG21 -21009.499059  -6242.492552  15580.850575     -5.993990
PG22   4413.683296  20930.906960 -15604.425712   -783.358428
PG23  10578.208866  14186.814660  20089.580482   -117.067605
PG24  -2612.790256 -15624.440684 -21502.978349    -12.558036
PG25 -16632.772116 -20883.287482   -919.307669      1.318661
PG26 -15377.839886   5454.977777  20956.478412    199.688403
PG27 -12451.188132  22432.788603   6000.933791   -284.169434
PG28  18592.228026   6558.505731 -17145.185284    720.333666
PG29  -7249.027842 -16038.320027  19841.052198    -96.058337
PG30  26245.838349   -152.006297   4795.798573   -212.397548
PG31 -25156.346521   7527.317663   5333.766609    -40.102243
PG32 -16761.542586   5781.674003 -19650.164070    273.209454
PJ01 -19187.584013  26247.663489 -22239.988825   -311.023765
PJ02 -26820.152882  21560.550900  29195.942653     -2.689188
PJ03 -32824.892326  25682.615533  11340.929329     -2.604945
PR01  -7315.694578  13678.209099 -20247.392361     60.982116
PR02   2836.651855  25136.679101  -3009.331491    424.955826
PR03  10036.105758  18895.960782  13899.487679     14.402537
PR04  11257.275121   2050.775199  22829.422647     47.863743
PR05   6232.818134 -16001.199868  18886.102992     49.823788
PR07 -10120.568527 -18582.111914 -14233.815967    -36.131190
PR08 -11340.060807  -2076.351950 -22696.451942    -51.999925
PR09  -9110.829349 -13478.844648 -19610.181536    130.682110
PR11 -23496.844830  -3761.514023   9134.111573    -22.356733
PR12 -13121.384417   5879.927374  21097.750942    127.846748
PR13   5428.505748  12694.221414  21429.345353    -38.230078
PR14  20553.941179  12105.821693   9064.206698     50.834348
PR15  23695.215141   4467.127222  -8303.723870    106.425564
PR16  12436.393867  -6625.807830 -21257.563239     -3.255031
PR17   8146.769789   6943.338987 -23144.960509    322.067073
PR18  18999.748166  -6452.160504 -15775.283303     34.161353
PR19  20159.557718 -15626.389340   -402.461912    -91.661205
PR20   8465.194162 -16541.230600  17506.765614   -410.769613
PR21  -8898.160177  -6173.130990  23094.904607   -122.168903
PR22 -19772.776069   8159.053813  13800.048990      0.457209
PR23 -17162.227565  17746.405825  -6413.595588    303.240587
PR24  -7498.763731  16636.780179 -17810.444986     -3.087671
PR26  11729.656611 -17754.873872  14057.854005   -397.130320
EOF
